INTELSAT 902 (IS-902)   
1 26900U 01039A   26160.54575561 -.00000268  00000+0  00000+0 0  9998
2 26900   6.0990  71.8760 0004482   2.5866 329.8174  1.00272824 90613
INTELSAT 904 (IS-904)   
1 27380U 02007A   26160.24488929 -.00000210  00000+0  00000+0 0  9992
2 27380   6.8994  69.2783 0006685   1.2026 243.8061  1.00272888 51689
DIRECTV 5 (TEMPO 1)     
1 27426U 02023A   26160.57930894 -.00000041  00000+0  00000+0 0  9992
2 27426   4.8574  75.4038 0003324  13.9875 267.0098  1.00271525 88048
INTELSAT 905 (IS-905)   
1 27438U 02027A   26160.63227618  .00000109  00000+0  00000+0 0  9993
2 27438   6.7337  69.8895 0003945  15.6329 262.8880  1.00270990 51282
GALAXY 3C (G-3C)        
1 27445U 02030A   26160.60828772 -.00000136  00000+0  00000+0 0  9991
2 27445   3.7106  78.0762 0001741  32.8406 271.2000  1.00271548 46412
INTELSAT 906 (IS-906)   
1 27513U 02041A   26160.78231876  .00000029  00000+0  00000+0 0  9991
2 27513   5.7850  73.0117 0004655 359.5831 171.3208  1.00271428 86953
GALAXY 13 (HORIZONS-1)  
1 27954U 03044A   26160.73992926  .00000150  00000+0  00000+0 0  9994
2 27954   1.4009  83.9502 0002105 351.3364 299.1955  1.00273879 46493
INTELSAT 10-02          
1 28358U 04022A   26160.69814179  .00000006  00000+0  00000+0 0  9998
2 28358   0.0135 331.3110 0000551 201.9292 335.1547  1.00269630 80480
DIRECTV 8               
1 28659U 05019A   26160.67479209  .00000018  00000+0  00000+0 0  9991
2 28659   0.0178  13.5894 0002937  68.3461 299.9894  1.00271702 76998
GALAXY 28 (G-28)        
1 28702U 05022A   26160.69294177 -.00000183  00000+0  00000+0 0  9999
2 28702   3.2802  79.0233 0002848 355.3958  46.0000  1.00272207 51906
GALAXY 16 (G-16)        
1 29236U 06023A   26160.67869212 -.00000110  00000+0  00000+0 0  9990
2 29236   0.0353 128.8642 0002611 311.3243 323.1951  1.00271437 72898
DIRECTV 9S              
1 29494U 06043A   26160.67825878 -.00000096  00000+0  00000+0 0  9991
2 29494   2.4004  80.9918 0004990   7.9570 312.0900  1.00271259 51306
GALAXY 17 (G-17)        
1 31307U 07016B   26160.53890891 -.00000189  00000+0  00000+0 0  9993
2 31307   2.9518  79.9960 0004832  17.0414 269.8934  1.00271242 69729
INTELSAT 11 (IS-11)     
1 32253U 07044B   26160.72970255 -.00000247  00000+0  00000+0 0  9994
2 32253   3.5450  78.7587 0001958  85.3581 155.2800  0.99053499 68372
HORIZONS-2              
1 32388U 07063B   26160.54116226 -.00000237  00000+0  00000+0 0  9993
2 32388   2.5814  80.7187 0003931 356.5254 301.7227  1.00271371 67730
DIRECTV 11              
1 32729U 08013A   26160.05357880 -.00000109  00000+0  00000+0 0  9995
2 32729   0.0372 171.9066 0000327 221.7276 143.9123  1.00271306 45514
GALAXY 18 (G-18)        
1 32951U 08024A   26160.74521595  .00000042  00000+0  00000+0 0  9991
2 32951   0.0172 308.3492 0003146 142.5291 312.5205  1.00272560 45773
INTELSAT 25 (IS-25)     
1 33153U 08034A   26160.72892253 -.00000256  00000+0  00000+0 0  9995
2 33153   2.6892  80.4547 0002867  51.5401 183.3345  0.99035783 65610
GALAXY 19 (G-19)        
1 33376U 08045A   26160.67903878 -.00000122  00000+0  00000+0 0  9996
2 33376   0.0162 273.3235 0002701 165.0046 327.1890  1.00271218 64822
FM-5                    
1 35493U 09034A   26160.61002106 -.00000183  00000+0  00000+0 0  9992
2 35493   0.0193 289.3868 0000620  10.4212  91.6408  1.00271120 46564
INTELSAT 14 (IS-14)     
1 36097U 09064A   26160.30808655 -.00000257  00000+0  00000+0 0  9997
2 36097   0.0138 334.2610 0002763 120.8705 228.4733  1.00270426 60523
INTELSAT 15 (IS-15)     
1 36106U 09067A   26160.85775295 -.00000168  00000+0  00000+0 0  9995
2 36106   0.0172 349.7214 0002217  93.1458 209.3028  1.00270955 41154
DIRECTV 12              
1 36131U 09075A   26160.30393988 -.00000086  00000+0  00000+0 0  9996
2 36131   0.0431 137.4498 0000297 268.2862 218.6427  1.00271118 46474
INTELSAT 16 (IS-16)     
1 36397U 10006A   26160.54064226 -.00000227  00000+0  00000+0 0  9999
2 36397   0.0090 324.5904 0002134 132.6882 279.0741  1.00269634 59573
XM-5                    
1 37185U 10053A   26159.96257545 -.00000006  00000+0  00000+0 0  9994
2 37185   0.0671 272.7941 0002723 285.1463 290.7439  1.00270322 57402
INTELSAT 17 (IS-17)     
1 37238U 10065B   26160.85393959  .00000016  00000+0  00000+0 0  9996
2 37238   0.0024 125.3051 0002531 322.7458 183.5909  1.00272727 53179
INTELSAT 28 (IS-28)     
1 37392U 11016A   26160.69207510 -.00000208  00000+0  00000+0 0  9997
2 37392   1.7858  82.7137 0003771   0.9552  31.8385  1.00272049 53216
INTELSAT 18 (IS-18)     
1 37834U 11056A   26160.80525109  .00000070  00000+0  00000+0 0  9998
2 37834   0.0167 310.6376 0002094 143.8384 273.5975  1.00272098 53738
INTELSAT 22 (IS-22)     
1 38098U 12011A   26160.78387876 -.00000039  00000+0  00000+0 0  9993
2 38098   0.0296  71.2201 0001108 343.7617 197.4489  1.00263691  7110
INTELSAT 19 (IS-19)     
1 38356U 12030A   26160.80247774 -.00000039  00000+0  00000+0 0  9996
2 38356   0.0152 340.5209 0003000 106.3962 266.1539  1.00271897 50370
INTELSAT 20 (IS-20)     
1 38740U 12043A   26160.85445961 -.00000007  00000+0  00000+0 0  9995
2 38740   0.0033  75.6721 0002098  99.6696  98.9933  1.00268907 50674
